{
  "type": "FeatureCollection",
  "features": [
    {
      "type": "Feature",
      "properties": {
        "norad_id": 30243,
        "name": "FENGYUN 1C DEB",
        "group": "fengyun-1c-debris",
        "lat": 28.075675822846065,
        "lon": -5.067935462393524,
        "alt_km": 847.1525990440896,
        "timestamp": "2025-12-14T05:42:18.734922+00:00",
        "meta_object_name": "FENGYUN 1C DEB",
        "meta_object_id": "1999-025XC",
        "meta_epoch": "2025-12-13T13:09:08.020800",
        "meta_mean_motion": 14.13022979,
        "meta_eccentricity": 0.00130863,
        "meta_inclination": 98.6931,
        "meta_ra_of_asc_node": 358.9434,
        "meta_arg_of_pericenter": 116.9363,
        "meta_mean_anomaly": 5.2463,
        "meta_ephemeris_type": 0,
        "meta_classification_type": "U",
        "meta_norad_cat_id": 30243,
        "meta_element_set_no": 999,
        "meta_rev_at_epoch": 97290,
        "meta_bstar": 0.00052075314,
        "meta_mean_motion_dot": 9.3e-06,
        "meta_mean_motion_ddot": 0,
        "tle_line1": "1 30243U 99025XC  25347.54800950  .00000930  00000+0  52075-3 0  9992",
        "tle_line2": "2 30243  98.6931 358.9434 0013086 116.9363   5.2463 14.13022979972908"
      },
      "geometry": {
        "type": "Point",
        "coordinates": [
          -5.067935462393524,
          28.075675822846065
        ]
      }
    },
    {
      "type": "Feature",
      "properties": {
        "norad_id": 30244,
        "name": "FENGYUN 1C DEB",
        "group": "fengyun-1c-debris",
        "lat": -53.41102782142857,
        "lon": 45.39617533918079,
        "alt_km": 847.6024244820001,
        "timestamp": "2025-12-14T05:42:18.734932+00:00",
        "meta_object_name": "FENGYUN 1C DEB",
        "meta_object_id": "1999-025XD",
        "meta_epoch": "2025-12-13T15:20:25.566720",
        "meta_mean_motion": 14.15017824,
        "meta_eccentricity": 0.00095076,
        "meta_inclination": 99.1433,
        "meta_ra_of_asc_node": 237.3127,
        "meta_arg_of_pericenter": 312.7411,
        "meta_mean_anomaly": 114.4342,
        "meta_ephemeris_type": 0,
        "meta_classification_type": "U",
        "meta_norad_cat_id": 30244,
        "meta_element_set_no": 999,
        "meta_rev_at_epoch": 97359,
        "meta_bstar": 0.00055139438,
        "meta_mean_motion_dot": 1.021e-05,
        "meta_mean_motion_ddot": 0,
        "tle_line1": "1 30244U 99025XD  25347.63918480  .00001021  00000+0  55139-3 0  9997",
        "tle_line2": "2 30244  99.1433 237.3127 0009507 312.7411 114.4342 14.15017824973594"
      },
      "geometry": {
        "type": "Point",
        "coordinates": [
          45.39617533918079,
          -53.41102782142857
        ]
      }
    },
    {
      "type": "Feature",
      "properties": {
        "norad_id": 30245,
        "name": "FENGYUN 1C DEB",
        "group": "fengyun-1c-debris",
        "lat": 0.7208258169158008,
        "lon": 155.8591662065986,
        "alt_km": 914.1394082968218,
        "timestamp": "2025-12-14T05:42:18.734943+00:00",
        "meta_object_name": "FENGYUN 1C DEB",
        "meta_object_id": "1999-025XE",
        "meta_epoch": "2025-12-13T09:39:56.512224",
        "meta_mean_motion": 13.79071567,
        "meta_eccentricity": 0.01930801,
        "meta_inclination": 98.889,
        "meta_ra_of_asc_node": 334.9626,
        "meta_arg_of_pericenter": 249.2499,
        "meta_mean_anomaly": 108.787,
        "meta_ephemeris_type": 0,
        "meta_classification_type": "U",
        "meta_norad_cat_id": 30245,
        "meta_element_set_no": 999,
        "meta_rev_at_epoch": 94703,
        "meta_bstar": 0.0017112925,
        "meta_mean_motion_dot": 1.969e-05,
        "meta_mean_motion_ddot": 0,
        "tle_line1": "1 30245U 99025XE  25347.40273741  .00001969  00000+0  17113-2 0  9997",
        "tle_line2": "2 30245  98.8890 334.9626 0193080 249.2499 108.7870 13.79071567947031"
      },
      "geometry": {
        "type": "Point",
        "coordinates": [
          155.8591662065986,
          0.7208258169158008
        ]
      }
    },
    {
      "type": "Feature",
      "properties": {
        "norad_id": 30246,
        "name": "FENGYUN 1C DEB",
        "group": "fengyun-1c-debris",
        "lat": 48.689624008601584,
        "lon": 121.69160037522025,
        "alt_km": 919.0370320955517,
        "timestamp": "2025-12-14T05:42:18.734953+00:00",
        "meta_object_name": "FENGYUN 1C DEB",
        "meta_object_id": "1999-025XF",
        "meta_epoch": "2025-12-12T21:45:34.528032",
        "meta_mean_motion": 13.37018862,
        "meta_eccentricity": 0.03706764,
        "meta_inclination": 98.6731,
        "meta_ra_of_asc_node": 130.5564,
        "meta_arg_of_pericenter": 99.2912,
        "meta_mean_anomaly": 29.8068,
        "meta_ephemeris_type": 0,
        "meta_classification_type": "U",
        "meta_norad_cat_id": 30246,
        "meta_element_set_no": 999,
        "meta_rev_at_epoch": 92142,
        "meta_bstar": 0.00038954791,
        "meta_mean_motion_dot": 2.69e-06,
        "meta_mean_motion_ddot": 0,
        "tle_line1": "1 30246U 99025XF  25346.90664963  .00000269  00000+0  38955-3 0  9992",
        "tle_line2": "2 30246  98.6731 130.5564 0370676  99.2912  29.8068 13.37018862921426"
      },
      "geometry": {
        "type": "Point",
        "coordinates": [
          121.69160037522025,
          48.689624008601584
        ]
      }
    },
    {
      "type": "Feature",
      "properties": {
        "norad_id": 30247,
        "name": "FENGYUN 1C DEB",
        "group": "fengyun-1c-debris",
        "lat": 57.136976232954304,
        "lon": -117.63351956323017,
        "alt_km": 642.6194739784851,
        "timestamp": "2025-12-14T05:42:18.734964+00:00",
        "meta_object_name": "FENGYUN 1C DEB",
        "meta_object_id": "1999-025XG",
        "meta_epoch": "2025-12-13T16:32:59.547840",
        "meta_mean_motion": 14.59225342,
        "meta_eccentricity": 0.01937621,
        "meta_inclination": 98.2759,
        "meta_ra_of_asc_node": 254.8406,
        "meta_arg_of_pericenter": 349.0719,
        "meta_mean_anomaly": 69.1765,
        "meta_ephemeris_type": 0,
        "meta_classification_type": "U",
        "meta_norad_cat_id": 30247,
        "meta_element_set_no": 999,
        "meta_rev_at_epoch": 97296,
        "meta_bstar": 0.0035787514,
        "meta_mean_motion_dot": 0.00021957,
        "meta_mean_motion_ddot": 0,
        "tle_line1": "1 30247U 99025XG  25347.68957810  .00021957  00000+0  35788-2 0  9992",
        "tle_line2": "2 30247  98.2759 254.8406 0193762 349.0719  69.1765 14.59225342972962"
      },
      "geometry": {
        "type": "Point",
        "coordinates": [
          -117.63351956323017,
          57.136976232954304
        ]
      }
    },
    {
      "type": "Feature",
      "properties": {
        "norad_id": 30248,
        "name": "FENGYUN 1C DEB",
        "group": "fengyun-1c-debris",
        "lat": 80.87620544002894,
        "lon": 78.81594546924558,
        "alt_km": 676.2552768005098,
        "timestamp": "2025-12-14T05:42:18.734974+00:00",
        "meta_object_name": "FENGYUN 1C DEB",
        "meta_object_id": "1999-025XH",
        "meta_epoch": "2025-12-13T11:11:21.557472",
        "meta_mean_motion": 14.59227145,
        "meta_eccentricity": 0.00291657,
        "meta_inclination": 99.0993,
        "meta_ra_of_asc_node": 171.6596,
        "meta_arg_of_pericenter": 148.1807,
        "meta_mean_anomaly": 212.1159,
        "meta_ephemeris_type": 0,
        "meta_classification_type": "U",
        "meta_norad_cat_id": 30248,
        "meta_element_set_no": 999,
        "meta_rev_at_epoch": 97439,
        "meta_bstar": 0.0068532772,
        "meta_mean_motion_dot": 0.00032626,
        "meta_mean_motion_ddot": 0,
        "tle_line1": "1 30248U 99025XH  25347.46622173  .00032626  00000+0  68533-2 0  9999",
        "tle_line2": "2 30248  99.0993 171.6596 0029165 148.1807 212.1159 14.59227145974398"
      },
      "geometry": {
        "type": "Point",
        "coordinates": [
          78.81594546924558,
          80.87620544002894
        ]
      }
    },
    {
      "type": "Feature",
      "properties": {
        "norad_id": 30249,
        "name": "FENGYUN 1C DEB",
        "group": "fengyun-1c-debris",
        "lat": 28.941607893536812,
        "lon": -22.227440640253523,
        "alt_km": 706.625480540677,
        "timestamp": "2025-12-14T05:42:18.734984+00:00",
        "meta_object_name": "FENGYUN 1C DEB",
        "meta_object_id": "1999-025XJ",
        "meta_epoch": "2025-12-13T09:30:54.931968",
        "meta_mean_motion": 14.57706258,
        "meta_eccentricity": 0.00266182,
        "meta_inclination": 98.9581,
        "meta_ra_of_asc_node": 151.8636,
        "meta_arg_of_pericenter": 39.2925,
        "meta_mean_anomaly": 18.8311,
        "meta_ephemeris_type": 0,
        "meta_classification_type": "U",
        "meta_norad_cat_id": 30249,
        "meta_element_set_no": 999,
        "meta_rev_at_epoch": 97573,
        "meta_bstar": 0.0059675115,
        "meta_mean_motion_dot": 0.00027429,
        "meta_mean_motion_ddot": 0,
        "tle_line1": "1 30249U 99025XJ  25347.39646912  .00027429  00000+0  59675-2 0  9991",
        "tle_line2": "2 30249  98.9581 151.8636 0026618  39.2925  18.8311 14.57706258975731"
      },
      "geometry": {
        "type": "Point",
        "coordinates": [
          -22.227440640253523,
          28.941607893536812
        ]
      }
    }
  ]
}